{
    "links": {
        "self": "http://www.neowsapp.com/rest/v1/neo/3760441?api_key=iIulBulltgU6a56xZRHN4H3l9WmuAYTsLGpBGhQ2"
    },
    "id": "3760441",
    "neo_reference_id": "3760441",
    "name": "(2016 TM10)",
    "designation": "2016 TM10",
    "nasa_jpl_url": "http://ssd.jpl.nasa.gov/sbdb.cgi?sstr=3760441",
    "absolute_magnitude_h": 26.3,
    "estimated_diameter": {
        "kilometers": {
            "estimated_diameter_min": 0.0146067964,
            "estimated_diameter_max": 0.0326617897
        },
        "meters": {
            "estimated_diameter_min": 14.6067964271,
            "estimated_diameter_max": 32.6617897446
        },
        "miles": {
            "estimated_diameter_min": 0.0090762397,
            "estimated_diameter_max": 0.020295089
        },
        "feet": {
            "estimated_diameter_min": 47.92256199,
            "estimated_diameter_max": 107.1581062656
        }
    },
    "is_potentially_hazardous_asteroid": false,
    "close_approach_data": [
        {
            "close_approach_date": "2016-10-06",
            "close_approach_date_full": "2016-Oct-06 21:56",
            "epoch_date_close_approach": 1475790960000,
            "relative_velocity": {
                "kilometers_per_second": "20.2856627585",
                "kilometers_per_hour": "73028.3859307706",
                "miles_per_hour": "45376.9990245947"
            },
            "miss_distance": {
                "astronomical": "0.0174204093",
                "lunar": "6.7765392177",
                "kilometers": "2606056.125808191",
                "miles": "1619328.1873313958"
            },
            "orbiting_body": "Earth"
        }
    ],
    "orbital_data": {
        "orbit_id": "3",
        "orbit_determination_date": "2017-04-06 08:23:21",
        "first_observation_date": "2016-10-04",
        "last_observation_date": "2016-10-06",
        "data_arc_in_days": 2,
        "observations_used": 35,
        "orbit_uncertainty": "8",
        "minimum_orbit_intersection": ".0127493",
        "jupiter_tisserand_invariant": "3.351",
        "epoch_osculation": "2457666.5",
        "eccentricity": ".6973545947867901",
        "semi_major_axis": "2.112860526247181",
        "inclination": "13.59215304041078",
        "ascending_node_longitude": "10.31316295992914",
        "orbital_period": "1121.772194811432",
        "perihelion_distance": ".639447530125074",
        "perihelion_argument": "86.24113282452655",
        "aphelion_distance": "3.586273522369288",
        "perihelion_time": "2457714.743968876598",
        "mean_anomaly": "344.5175082107515",
        "mean_motion": ".3209207730991367",
        "equinox": "J2000",
        "orbit_class": {
            "orbit_class_type": "APO",
            "orbit_class_description": "Near-Earth asteroid orbits which cross the Earth’s orbit similar to that of 1862 Apollo",
            "orbit_class_range": "a (semi-major axis) > 1.0 AU; q (perihelion) < 1.017 AU"
        }
    },
    "is_sentry_object": false
}